STARLINK-1513           
1 45786U 20038BJ  26068.62517786  .00011742  00000+0  40750-3 0  9990
2 45786  53.1601 191.4505 0000951 101.2977 258.8131 15.30234927316830
TOMORROW-S2             
1 60485U 24149T   26068.75188364  .00008133  00000+0  27683-3 0  9990
2 60485  97.3857 150.0385 0001648 234.3331 125.7757 15.30674935 86869
